[{"OBJECT_NAME":"STARLINK-31987","OBJECT_ID":"2024-111B","EPOCH":"2026-03-09T06:09:41.841792","MEAN_MOTION":15.30187806,"ECCENTRICITY":0.00011667,"INCLINATION":53.161,"RA_OF_ASC_NODE":77.892,"ARG_OF_PERICENTER":79.9762,"MEAN_ANOMALY":280.1371,"EPHEMERIS_TYPE":0,"CLASSIFICATION_TYPE":"U","NORAD_CAT_ID":60017,"ELEMENT_SET_NO":999,"REV_AT_EPOCH":9892,"BSTAR":-5.824588e-6,"MEAN_MOTION_DOT":-5.31e-6,"MEAN_MOTION_DDOT":0},{"OBJECT_NAME":"KUIPER-00213","OBJECT_ID":"2026-030P","EPOCH":"2026-03-09T22:00:01.999584","MEAN_MOTION":15.32626943,"ECCENTRICITY":0.00152813,"INCLINATION":51.8816,"RA_OF_ASC_NODE":218.5142,"ARG_OF_PERICENTER":64.2462,"MEAN_ANOMALY":206.8369,"EPHEMERIS_TYPE":0,"CLASSIFICATION_TYPE":"U","NORAD_CAT_ID":67777,"ELEMENT_SET_NO":999,"REV_AT_EPOCH":502,"BSTAR":0.0016072376,"MEAN_MOTION_DOT":0.00051551,"MEAN_MOTION_DDOT":0}]
